GPS BIIR-2  (PRN 13)    
1 24876U 97035A   22283.53459268  .00000043  00000+0  00000+0 0  9995
2 24876  55.5234 151.1837 0063592  52.7890 307.8901  2.00563295184963
GPS BIIR-4  (PRN 20)    
1 26360U 00025A   22283.66141204 -.00000038  00000+0  00000+0 0  9995
2 26360  54.1553  74.1117 0047981 186.5755 356.4905  2.00564251164287
GPS BIIR-6  (PRN 22)    
1 26605U 00071A   22283.54967385  .00000044  00000+0  00000+0 0  9997
2 26605  55.1092 148.1264 0136763 254.5578 332.6708  2.00555003160524
GPS BIIR-8  (PRN 16)    
1 27663U 03005A   22283.67008235 -.00000026  00000+0  00000+0 0  9997
2 27663  55.4395 268.4828 0126933  41.2262 125.0063  2.00557804144328
GPS BIIR-9  (PRN 21)    
1 27704U 03010A   22283.66601106 -.00000109  00000+0  00000+0 0  9996
2 27704  55.0609  18.6483 0245637 308.8501  69.9689  2.00561317143122
GPS BIIR-11 (PRN 19)    
1 28190U 04009A   22283.29297231 -.00000075  00000+0  00000+0 0  9996
2 28190  55.9307 329.5091 0089072 126.4909 281.9566  2.00557840135958
GPS BIIR-13 (PRN 02)    
1 28474U 04045A   22283.45954286 -.00000109  00000+0  00000+0 0  9997
2 28474  55.3866  18.8408 0202974 280.1165 115.6312  2.00421327131449
GPS BIIRM-1 (PRN 17)    
1 28874U 05038A   22283.73530003 -.00000074  00000+0  00000+0 0  9993
2 28874  55.9921 326.9304 0140338 275.5039 119.9637  2.00568632124857
GPS BIIRM-2 (PRN 31)    
1 29486U 06042A   22283.80928538  .00000000  00000+0  00000+0 0  9999
2 29486  54.7042 204.6909 0105081  24.1470 338.2340  2.00572329117413
GPS BIIRM-3 (PRN 12)    
1 29601U 06052A   22283.25348204 -.00000027  00000+0  00000+0 0  9994
2 29601  55.4502 267.4424 0082960  75.0308 285.8661  2.00557255116418
GPS BIIRM-4 (PRN 15)    
1 32260U 07047A   22283.06074535  .00000045  00000+0  00000+0 0  9995
2 32260  53.3443 135.7929 0144303  65.1667 296.4245  2.00568612109810
GPS BIIRM-5 (PRN 29)    
1 32384U 07062A   22283.30207784 -.00000073  00000+0  00000+0 0  9992
2 32384  56.1149 327.7239 0020496 146.8526 155.2309  2.00568352108515
GPS BIIRM-6 (PRN 07)    
1 32711U 08012A   22283.47561308 -.00000002  00000+0  00000+0 0  9997
2 32711  54.4658 203.6129 0166039 232.1314 126.3755  2.00568232106769
GPS BIIRM-8 (PRN 05)    
1 35752U 09043A   22283.46601130 -.00000021  00000+0  00000+0 0  9998
2 35752  55.1631  80.9011 0057882  63.8708 300.4228  2.00578433 96372
GPS BIIF-1  (PRN 25)    
1 36585U 10022A   22283.49474786 -.00000026  00000+0  00000+0 0  9995
2 36585  54.7371 262.8718 0104185  56.7610  90.9529  2.00571223 90605
GPS BIIF-2  (PRN 01)    
1 37753U 11036A   22281.73926700 -.00000105  00000+0  00000+0 0  9990
2 37753  56.6525  24.3000 0118275  53.4814 349.6344  2.00565952 82258
GPS BIIF-3  (PRN 24)    
1 38833U 12053A   22283.15953207 -.00000001  00000+0  00000+0 0  9995
2 38833  53.5221 198.6559 0130036  47.8179 313.3051  2.00563203 72441
GPS BIIF-4  (PRN 27)    
1 39166U 13023A   22283.51635780 -.00000070  00000+0  00000+0 0  9992
2 39166  55.6157 323.2666 0104788  38.2778 322.5218  2.00565348 68894
GPS BIIF-5  (PRN 30)    
1 39533U 14008A   22283.02041137 -.00000008  00000+0  00000+0 0  9998
2 39533  53.6143 204.1801 0060518 209.6169 150.0542  2.00559884 62686
GPS BIIF-6  (PRN 06)    
1 39741U 14026A   22283.30278340 -.00000106  00000+0  00000+0 0  9997
2 39741  56.6128  23.7650 0026799 304.8703  54.8918  2.00580347 61545
GPS BIIF-7  (PRN 09)    
1 40105U 14045A   22283.38643118  .00000045  00000+0  00000+0 0  9992
2 40105  54.7153 142.2149 0023542 111.4455 248.9038  2.00555076 59083
GPS BIIF-8  (PRN 03)    
1 40294U 14068A   22283.75201846 -.00000017  00000+0  00000+0 0  9995
2 40294  55.9067  83.3839 0042665  58.4562 301.9669  2.00549502 58228
GPS BIIF-9  (PRN 26)    
1 40534U 15013A   22283.39980481 -.00000028  00000+0  00000+0 0  9994
2 40534  53.6372 259.9309 0071716  20.0929 340.1572  2.00575069 54831
GPS BIIF-10 (PRN 08)    
1 40730U 15033A   22283.55690806 -.00000070  00000+0  00000+0 0  9998
2 40730  55.1114 322.0385 0075626   7.5117 352.6595  2.00572178 53008
GPS BIIF-11 (PRN 10)    
1 41019U 15062A   22283.60676033 -.00000016  00000+0  00000+0 0  9993
2 41019  55.8941  83.2349 0081574 217.4812 141.9562  2.00562595 50847
GPS BIIF-12 (PRN 32)    
1 41328U 16007A   22283.69454066  .00000043  00000+0  00000+0 0  9994
2 41328  54.9296 142.9019 0062951 229.7406 129.8036  2.00565504 48855
GPS BIII-1  (PRN 04)    
1 43873U 18109A   22283.60919910  .00000044  00000+0  00000+0 0  9992
2 43873  55.1087 145.3491 0020906 188.1506   2.5665  2.00555039 28087
GPS BIII-2  (PRN 18)    
1 44506U 19056A   22283.62017679 -.00000106  00000+0  00000+0 0  9991
2 44506  55.7280  24.4745 0028962 182.0116 276.8005  2.00558575 23088
GPS BIII-3  (PRN 23)    
1 45854U 20041A   22283.56716014 -.00000019  00000+0  00000+0 0  9999
2 45854  55.6132  81.7434 0027333 178.4111 180.0687  2.00569286 17048
GPS BIII-4  (PRN 14)    
1 46826U 20078A   22283.34160635 -.00000028  00000+0  00000+0 0  9997
2 46826  54.4971 265.4307 0023774 191.6798 340.8261  2.00565172 14501
GPS BIII-5  (PRN 11)    
1 48859U 21054A   22283.46290045 -.00000106  00000+0  00000+0 0  9999
2 48859  55.2366  26.4241 0008205 201.5315 243.6236  2.00566756  9769
